{"type": "FeatureCollection", "features": [ {"type": "Feature", "properties": {"norad_id": 66623, "name": "STARLINK-35920", "group": "last-30-days", "lat": -8.548125284934727, "lon": -137.515743043834, "alt_km": 327.90564547247686, "timestamp": "2025-12-04T05:42:42.159602+00:00", "meta": {"OBJECT_NAME": "STARLINK-35920", "OBJECT_ID": "2025-271G", "EPOCH": "2025-12-03T22:00:03.000096", "MEAN_MOTION": 15.82724781, "ECCENTRICITY": 5.97e-05, "INCLINATION": 53.1569, "RA_OF_ASC_NODE": 230.5694, "ARG_OF_PERICENTER": 84.8428, "MEAN_ANOMALY": 233.5113, "EPHEMERIS_TYPE": 0, "CLASSIFICATION_TYPE": "U", "NORAD_CAT_ID": 66623, "ELEMENT_SET_NO": 999, "REV_AT_EPOCH": 282, "BSTAR": -0.0082960358, "MEAN_MOTION_DOT": -0.01566498, "MEAN_MOTION_DDOT": 0}, "tle": {"line1": "1 66623U 25271G   25337.91670139 -.01566498  00000+0 -82960-2 0  9993", "line2": "2 66623  53.1569 230.5694 0000597  84.8428 233.5113 15.82724781  2823"}}, "geometry": {"type": "Point", "coordinates": [-137.515743043834, -8.548125284934727]}}, {"type": "Feature", "properties": {"norad_id": 66624, "name": "STARLINK-35927", "group": "last-30-days", "lat": -10.16450707654986, "lon": -138.766230023684, "alt_km": 328.1574622890739, "timestamp": "2025-12-04T05:42:42.159613+00:00", "meta": {"OBJECT_NAME": "STARLINK-35927", "OBJECT_ID": "2025-271H", "EPOCH": "2025-12-03T22:00:03.000096", "MEAN_MOTION": 15.82717737, "ECCENTRICITY": 5.493e-05, "INCLINATION": 53.157, "RA_OF_ASC_NODE": 230.5735, "ARG_OF_PERICENTER": 94.1991, "MEAN_ANOMALY": 222.123, "EPHEMERIS_TYPE": 0, "CLASSIFICATION_TYPE": "U", "NORAD_CAT_ID": 66624, "ELEMENT_SET_NO": 999, "REV_AT_EPOCH": 282, "BSTAR": -0.0082623757, "MEAN_MOTION_DOT": -0.01560441, "MEAN_MOTION_DDOT": 0}, "tle": {"line1": "1 66624U 25271H   25337.91670139 -.01560441  00000+0 -82624-2 0  9993", "line2": "2 66624  53.1570 230.5735 0000549  94.1991 222.1230 15.82717737  2825"}}, "geometry": {"type": "Point", "coordinates": [-138.766230023684, -10.16450707654986]}}, {"type": "Feature", "properties": {"norad_id": 66625, "name": "STARLINK-35929", "group": "last-30-days", "lat": -6.581744726295639, "lon": -136.01282402409825, "alt_km": 327.7896582085259, "timestamp": "2025-12-04T05:42:42.159624+00:00", "meta": {"OBJECT_NAME": "STARLINK-35929", "OBJECT_ID": "2025-271J", "EPOCH": "2025-12-03T22:00:03.000096", "MEAN_MOTION": 15.82694931, "ECCENTRICITY": 5.828e-05, "INCLINATION": 53.1569, "RA_OF_ASC_NODE": 230.5641, "ARG_OF_PERICENTER": 87.6996, "MEAN_ANOMALY": 233.1642, "EPHEMERIS_TYPE": 0, "CLASSIFICATION_TYPE": "U", "NORAD_CAT_ID": 66625, "ELEMENT_SET_NO": 999, "REV_AT_EPOCH": 282, "BSTAR": -0.0083702872, "MEAN_MOTION_DOT": -0.01576783, "MEAN_MOTION_DDOT": 0}, "tle": {"line1": "1 66625U 25271J   25337.91670139 -.01576783  00000+0 -83703-2 0  9999", "line2": "2 66625  53.1569 230.5641 0000582  87.6996 233.1642 15.82694931  2828"}}, "geometry": {"type": "Point", "coordinates": [-136.01282402409825, -6.581744726295639]}}, {"type": "Feature", "properties": {"norad_id": 66626, "name": "STARLINK-35902", "group": "last-30-days", "lat": -4.649868820950609, "lon": -134.5511265090989, "alt_km": 327.6689067885691, "timestamp": "2025-12-04T05:42:42.159634+00:00", "meta": {"OBJECT_NAME": "STARLINK-35902", "OBJECT_ID": "2025-271K", "EPOCH": "2025-12-03T22:00:03.000096", "MEAN_MOTION": 15.82669849, "ECCENTRICITY": 5.653e-05, "INCLINATION": 53.1568, "RA_OF_ASC_NODE": 230.559, "ARG_OF_PERICENTER": 92.2188, "MEAN_ANOMALY": 231.1005, "EPHEMERIS_TYPE": 0, "CLASSIFICATION_TYPE": "U", "NORAD_CAT_ID": 66626, "ELEMENT_SET_NO": 999, "REV_AT_EPOCH": 282, "BSTAR": -0.0084486035, "MEAN_MOTION_DOT": -0.01587993, "MEAN_MOTION_DDOT": 0}, "tle": {"line1": "1 66626U 25271K   25337.91670139 -.01587993  00000+0 -84486-2 0  9994", "line2": "2 66626  53.1568 230.5590 0000565  92.2188 231.1005 15.82669849  2828"}}, "geometry": {"type": "Point", "coordinates": [-134.5511265090989, -4.649868820950609]}}, {"type": "Feature", "properties": {"norad_id": 66627, "name": "STARLINK-35904", "group": "last-30-days", "lat": -2.6679001032265557, "lon": -133.06254671689032, "alt_km": 327.460598128122, "timestamp": "2025-12-04T05:42:42.159644+00:00", "meta": {"OBJECT_NAME": "STARLINK-35904", "OBJECT_ID": "2025-271L", "EPOCH": "2025-12-03T22:00:03.000096", "MEAN_MOTION": 15.82638382, "ECCENTRICITY": 5.955e-05, "INCLINATION": 53.1566, "RA_OF_ASC_NODE": 230.5534, "ARG_OF_PERICENTER": 83.1821, "MEAN_ANOMALY": 242.6597, "EPHEMERIS_TYPE": 0, "CLASSIFICATION_TYPE": "U", "NORAD_CAT_ID": 66627, "ELEMENT_SET_NO": 999, "REV_AT_EPOCH": 266, "BSTAR": -0.0085304494, "MEAN_MOTION_DOT": -0.01599337, "MEAN_MOTION_DDOT": 0}, "tle": {"line1": "1 66627U 25271L   25337.91670139 -.01599337  00000+0 -85304-2 0  9990", "line2": "2 66627  53.1566 230.5534 0000595  83.1821 242.6597 15.82638382  2664"}}, "geometry": {"type": "Point", "coordinates": [-133.06254671689032, -2.6679001032265557]}}, {"type": "Feature", "properties": {"norad_id": 66628, "name": "STARLINK-35862", "group": "last-30-days", "lat": -0.8845229380684843, "lon": -131.72793098050548, "alt_km": 327.2954612279773, "timestamp": "2025-12-04T05:42:42.159653+00:00", "meta": {"OBJECT_NAME": "STARLINK-35862", "OBJECT_ID": "2025-271M", "EPOCH": "2025-12-03T22:00:03.000096", "MEAN_MOTION": 15.82653422, "ECCENTRICITY": 5.497e-05, "INCLINATION": 53.1568, "RA_OF_ASC_NODE": 230.549, "ARG_OF_PERICENTER": 92.2636, "MEAN_ANOMALY": 235.8014, "EPHEMERIS_TYPE": 0, "CLASSIFICATION_TYPE": "U", "NORAD_CAT_ID": 66628, "ELEMENT_SET_NO": 999, "REV_AT_EPOCH": 282, "BSTAR": -0.0086771483, "MEAN_MOTION_DOT": -0.01624227, "MEAN_MOTION_DDOT": 0}, "tle": {"line1": "1 66628U 25271M   25337.91670139 -.01624227  00000+0 -86771-2 0  9997", "line2": "2 66628  53.1568 230.5490 0000549  92.2636 235.8014 15.82653422  2820"}}, "geometry": {"type": "Point", "coordinates": [-131.72793098050548, -0.8845229380684843]}}, {"type": "Feature", "properties": {"norad_id": 66629, "name": "STARLINK-35956", "group": "last-30-days", "lat": 0.9873567250708501, "lon": -130.3290032032635, "alt_km": 327.18058116376415, "timestamp": "2025-12-04T05:42:42.159665+00:00", "meta": {"OBJECT_NAME": "STARLINK-35956", "OBJECT_ID": "2025-271N", "EPOCH": "2025-12-03T22:00:03.000096", "MEAN_MOTION": 15.82616582, "ECCENTRICITY": 6.475e-05, "INCLINATION": 53.1567, "RA_OF_ASC_NODE": 230.5441, "ARG_OF_PERICENTER": 96.8705, "MEAN_ANOMALY": 233.5782, "EPHEMERIS_TYPE": 0, "CLASSIFICATION_TYPE": "U", "NORAD_CAT_ID": 66629, "ELEMENT_SET_NO": 999, "REV_AT_EPOCH": 282, "BSTAR": -0.0087001305, "MEAN_MOTION_DOT": -0.01625563, "MEAN_MOTION_DDOT": 0}, "tle": {"line1": "1 66629U 25271N   25337.91670139 -.01625563  00000+0 -87001-2 0  9999", "line2": "2 66629  53.1567 230.5441 0000647  96.8705 233.5782 15.82616582  2825"}}, "geometry": {"type": "Point", "coordinates": [-130.3290032032635, 0.9873567250708501]}}, {"type": "Feature", "properties": {"norad_id": 66630, "name": "STARLINK-35949", "group": "last-30-days", "lat": 2.685332913035736, "lon": -129.0588007601683, "alt_km": 326.9109741725506, "timestamp": "2025-12-04T05:42:42.159677+00:00", "meta": {"OBJECT_NAME": "STARLINK-35949", "OBJECT_ID": "2025-271P", "EPOCH": "2025-12-03T22:00:03.000096", "MEAN_MOTION": 15.82613148, "ECCENTRICITY": 5.033e-05, "INCLINATION": 53.1565, "RA_OF_ASC_NODE": 230.5393, "ARG_OF_PERICENTER": 91.0533, "MEAN_ANOMALY": 241.522, "EPHEMERIS_TYPE": 0, "CLASSIFICATION_TYPE": "U", "NORAD_CAT_ID": 66630, "ELEMENT_SET_NO": 999, "REV_AT_EPOCH": 282, "BSTAR": -0.008723624, "MEAN_MOTION_DOT": -0.01629035, "MEAN_MOTION_DDOT": 0}, "tle": {"line1": "1 66630U 25271P   25337.91670139 -.01629035  00000+0 -87236-2 0  9999", "line2": "2 66630  53.1565 230.5393 0000503  91.0533 241.5220 15.82613148  2829"}}, "geometry": {"type": "Point", "coordinates": [-129.0588007601683, 2.685332913035736]}}, {"type": "Feature", "properties": {"norad_id": 66631, "name": "STARLINK-35965", "group": "last-30-days", "lat": 4.225578156311036, "lon": -127.90225566115352, "alt_km": 326.6385574116084, "timestamp": "2025-12-04T05:42:42.159687+00:00", "meta": {"OBJECT_NAME": "STARLINK-35965", "OBJECT_ID": "2025-271Q", "EPOCH": "2025-12-03T22:00:03.000096", "MEAN_MOTION": 15.82651013, "ECCENTRICITY": 5.423e-05, "INCLINATION": 53.1565, "RA_OF_ASC_NODE": 230.5355, "ARG_OF_PERICENTER": 93.4052, "MEAN_ANOMALY": 241.0624, "EPHEMERIS_TYPE": 0, "CLASSIFICATION_TYPE": "U", "NORAD_CAT_ID": 66631, "ELEMENT_SET_NO": 999, "REV_AT_EPOCH": 282, "BSTAR": -0.0088263927, "MEAN_MOTION_DOT": -0.01648276, "MEAN_MOTION_DDOT": 0}, "tle": {"line1": "1 66631U 25271Q   25337.91670139 -.01648276  00000+0 -88264-2 0  9990", "line2": "2 66631  53.1565 230.5355 0000542  93.4052 241.0624 15.82651013  2829"}}, "geometry": {"type": "Point", "coordinates": [-127.90225566115352, 4.225578156311036]}}, {"type": "Feature", "properties": {"norad_id": 66632, "name": "STARLINK-35973", "group": "last-30-days", "lat": 6.034098524884008, "lon": -126.5369823257762, "alt_km": 326.4002144490032, "timestamp": "2025-12-04T05:42:42.159698+00:00", "meta": {"OBJECT_NAME": "STARLINK-35973", "OBJECT_ID": "2025-271R", "EPOCH": "2025-12-03T22:00:03.000096", "MEAN_MOTION": 15.82609983, "ECCENTRICITY": 5.271e-05, "INCLINATION": 53.1564, "RA_OF_ASC_NODE": 230.5304, "ARG_OF_PERICENTER": 83.7477, "MEAN_ANOMALY": 253.0276, "EPHEMERIS_TYPE": 0, "CLASSIFICATION_TYPE": "U", "NORAD_CAT_ID": 66632, "ELEMENT_SET_NO": 999, "REV_AT_EPOCH": 276, "BSTAR": -0.0087842856, "MEAN_MOTION_DOT": -0.01638669, "MEAN_MOTION_DDOT": 0}, "tle": {"line1": "1 66632U 25271R   25337.91670139 -.01638669  00000+0 -87843-2 0  9998", "line2": "2 66632  53.1564 230.5304 0000527  83.7477 253.0276 15.82609983  2767"}}, "geometry": {"type": "Point", "coordinates": [-126.5369823257762, 6.034098524884008]}}]}